start=new Date('2021-09-20T00:00:00.000Z').valueOf();
sats=[{"TIME_SYSTEM":"UTC","PERIOD":"95.593","EPOCH":"2021-09-19T18:21:36.400896","REF_FRAME":"TEME","MEAN_MOTION_DOT":"0.00000735","APOAPSIS":"548.498","LAUNCH_DATE":"2020-11-25","FILE":"3120378","CENTER_NAME":"EARTH","ARG_OF_PERICENTER":"80.2126","ELEMENT_SET_NO":"999","MEAN_MOTION":"15.06392580","ECCENTRICITY":"0.00018220","INCLINATION":"53.0567","MEAN_ELEMENT_THEORY":"SGP4","SEMIMAJOR_AXIS":"6925.371","SITE":"AFETR","RA_OF_ASC_NODE":"67.6208","BSTAR":"0.00006827300000","TLE_LINE2":"2 47170  53.0567  67.6208 0001822  80.2126 279.9068 15.06392580 45872","RCS_SIZE":"LARGE","PERIAPSIS":"545.974","OBJECT_ID":"2020-088BA","OBJECT_NAME":"STARLINK-1887","MEAN_MOTION_DDOT":"0.0000000000000","GP_ID":"185056305","DECAY_DATE":null,"MEAN_ANOMALY":"279.9068","NORAD_CAT_ID":"47170","OBJECT_TYPE":"PAYLOAD","TLE_LINE1":"1 47170U 20088BA  21262.76500464  .00000735  00000-0  68273-4 0  9997","COUNTRY_CODE":"US","REV_AT_EPOCH":"4587","EPHEMERIS_TYPE":"0","CLASSIFICATION_TYPE":"U"},{"TLE_LINE1":"1 47171U 20088BB  21262.85070785  .00000913  00000-0  80221-4 0  9991","COUNTRY_CODE":"US","REV_AT_EPOCH":"4602","EPHEMERIS_TYPE":"0","CLASSIFICATION_TYPE":"U","SITE":"AFETR","SEMIMAJOR_AXIS":"6925.356","RA_OF_ASC_NODE":"57.2278","BSTAR":"0.00008022100000","RCS_SIZE":"LARGE","TLE_LINE2":"2 47171  53.0565  57.2278 0001546 102.7565 257.3597 15.06397418 46023","PERIAPSIS":"546.151","OBJECT_ID":"2020-088BB","OBJECT_NAME":"STARLINK-1888","GP_ID":"185057554","MEAN_MOTION_DDOT":"0.0000000000000","DECAY_DATE":null,"MEAN_ANOMALY":"257.3597","NORAD_CAT_ID":"47171","OBJECT_TYPE":"PAYLOAD","ARG_OF_PERICENTER":"102.7565","CENTER_NAME":"EARTH","ELEMENT_SET_NO":"999","MEAN_MOTION":"15.06397418","ECCENTRICITY":"0.00015460","INCLINATION":"53.0565","MEAN_ELEMENT_THEORY":"SGP4","TIME_SYSTEM":"UTC","PERIOD":"95.592","EPOCH":"2021-09-19T20:25:01.158240","REF_FRAME":"TEME","MEAN_MOTION_DOT":"0.00000913","APOAPSIS":"548.292","LAUNCH_DATE":"2020-11-25","FILE":"3120378"},{"EPHEMERIS_TYPE":"0","REV_AT_EPOCH":"4615","CLASSIFICATION_TYPE":"U","TLE_LINE1":"1 47172U 20088BC  21262.84111371  .00003858  00000-0  98035-4 0  9991","COUNTRY_CODE":"US","MEAN_ANOMALY":"292.4930","DECAY_DATE":null,"GP_ID":"185033413","MEAN_MOTION_DDOT":"0.0000000000000","NORAD_CAT_ID":"47172","OBJECT_TYPE":"PAYLOAD","OBJECT_ID":"2020-088BC","PERIAPSIS":"438.867","RCS_SIZE":"LARGE","TLE_LINE2":"2 47172  53.0572  68.5629 0001238  67.6206 292.4930 15.42168858 46155","SITE":"AFETR","RA_OF_ASC_NODE":"68.5629","SEMIMAJOR_AXIS":"6817.847","BSTAR":"0.00009803500000","OBJECT_NAME":"STARLINK-1889","MEAN_MOTION":"15.42168858","MEAN_ELEMENT_THEORY":"SGP4","INCLINATION":"53.0572","ECCENTRICITY":"0.00012380","CENTER_NAME":"EARTH","ARG_OF_PERICENTER":"67.6206","ELEMENT_SET_NO":"999","APOAPSIS":"440.556","MEAN_MOTION_DOT":"0.00003858","REF_FRAME":"TEME","FILE":"3120289","LAUNCH_DATE":"2020-11-25","EPOCH":"2021-09-19T20:11:12.224544","PERIOD":"93.375","TIME_SYSTEM":"UTC"},{"ARG_OF_PERICENTER":"93.3283","CENTER_NAME":"EARTH","ELEMENT_SET_NO":"999","MEAN_MOTION":"15.06396833","INCLINATION":"53.0553","MEAN_ELEMENT_THEORY":"SGP4","ECCENTRICITY":"0.00019660","PERIOD":"95.592","EPOCH":"2021-09-19T20:17:00.959136","TIME_SYSTEM":"UTC","APOAPSIS":"548.585","REF_FRAME":"TEME","MEAN_MOTION_DOT":"-0.00000709","FILE":"3120378","LAUNCH_DATE":"2020-11-25","TLE_LINE1":"1 47173U 20088BD  21262.84514999 -.00000709  00000-0 -28723-4 0  9996","COUNTRY_CODE":"US","EPHEMERIS_TYPE":"0","REV_AT_EPOCH":"4588","CLASSIFICATION_TYPE":"U","TLE_LINE2":"2 47173  53.0553  67.2547 0001966  93.3283 266.7931 15.06396833 45889","RCS_SIZE":"LARGE","OBJECT_ID":"2020-088BD","PERIAPSIS":"545.862","SITE":"AFETR","RA_OF_ASC_NODE":"67.2547","SEMIMAJOR_AXIS":"6925.358","BSTAR":"-0.00002872300000","OBJECT_NAME":"STARLINK-1890","MEAN_ANOMALY":"266.7931","GP_ID":"185056558","MEAN_MOTION_DDOT":"0.0000000000000","DECAY_DATE":null,"OBJECT_TYPE":"PAYLOAD","NORAD_CAT_ID":"47173"},{"APOAPSIS":"548.433","REF_FRAME":"TEME","MEAN_MOTION_DOT":"0.00000703","FILE":"3120378","LAUNCH_DATE":"2020-11-25","PERIOD":"95.592","EPOCH":"2021-09-19T17:17:54.343968","TIME_SYSTEM":"UTC","MEAN_MOTION":"15.06402009","INCLINATION":"53.0555","MEAN_ELEMENT_THEORY":"SGP4","ECCENTRICITY":"0.00017700","CENTER_NAME":"EARTH","ARG_OF_PERICENTER":"92.0247","ELEMENT_SET_NO":"999","MEAN_ANOMALY":"268.0944","MEAN_MOTION_DDOT":"0.0000000000000","GP_ID":"185056805","DECAY_DATE":null,"NORAD_CAT_ID":"47174","OBJECT_TYPE":"PAYLOAD","RCS_SIZE":"LARGE","TLE_LINE2":"2 47174  53.0555  67.8164 0001770  92.0247 268.0944 15.06402009 45862","PERIAPSIS":"545.982","OBJECT_ID":"2020-088BE","SITE":"AFETR","BSTAR":"0.00006612300000","SEMIMAJOR_AXIS":"6925.342","RA_OF_ASC_NODE":"67.8164","OBJECT_NAME":"STARLINK-1891","EPHEMERIS_TYPE":"0","REV_AT_EPOCH":"4586","CLASSIFICATION_TYPE":"U","TLE_LINE1":"1 47174U 20088BE  21262.72076787  .00000703  00000-0  66123-4 0  9990","COUNTRY_CODE":"US"},{"REV_AT_EPOCH":"4615","EPHEMERIS_TYPE":"0","CLASSIFICATION_TYPE":"U","TLE_LINE1":"1 47175U 20088BF  21262.78527125  .00000912  00000-0  80126-4 0  9995","COUNTRY_CODE":"US","DECAY_DATE":null,"MEAN_MOTION_DDOT":"0.0000000000000","GP_ID":"185057055","MEAN_ANOMALY":"272.5065","NORAD_CAT_ID":"47175","OBJECT_TYPE":"PAYLOAD","SITE":"AFETR","BSTAR":"0.00008012600000","SEMIMAJOR_AXIS":"6925.350","RA_OF_ASC_NODE":"47.5075","OBJECT_ID":"2020-088BF","PERIAPSIS":"546.317","RCS_SIZE":"LARGE","TLE_LINE2":"2 47175  53.0559  47.5075 0001297  87.6072 272.5065 15.06399388 46155","OBJECT_NAME":"STARLINK-1895","MEAN_MOTION":"15.06399388","ECCENTRICITY":"0.00012970","MEAN_ELEMENT_THEORY":"SGP4","INCLINATION":"53.0559","CENTER_NAME":"EARTH","ARG_OF_PERICENTER":"87.6072","ELEMENT_SET_NO":"999","MEAN_MOTION_DOT":"0.00000912","REF_FRAME":"TEME","APOAPSIS":"548.114","LAUNCH_DATE":"2020-11-25","FILE":"3120378","TIME_SYSTEM":"UTC","EPOCH":"2021-09-19T18:50:47.436000","PERIOD":"95.592"},{"REV_AT_EPOCH":"4600","EPHEMERIS_TYPE":"0","CLASSIFICATION_TYPE":"U","TLE_LINE1":"1 47177U 20088BH  21262.70327773  .00001207  00000-0  99922-4 0  9998","COUNTRY_CODE":"US","GP_ID":"185057807","MEAN_MOTION_DDOT":"0.0000000000000","DECAY_DATE":null,"MEAN_ANOMALY":"250.0928","OBJECT_TYPE":"PAYLOAD","NORAD_CAT_ID":"47177","RA_OF_ASC_NODE":"57.8997","SITE":"AFETR","SEMIMAJOR_AXIS":"6925.368","BSTAR":"0.00009992200000","RCS_SIZE":"LARGE","TLE_LINE2":"2 47177  53.0559  57.8997 0001506 110.0223 250.0928 15.06393524 46005","PERIAPSIS":"546.190","OBJECT_ID":"2020-088BH","OBJECT_NAME":"STARLINK-1907","MEAN_MOTION":"15.06393524","ECCENTRICITY":"0.00015060","INCLINATION":"53.0559","MEAN_ELEMENT_THEORY":"SGP4","ARG_OF_PERICENTER":"110.0223","CENTER_NAME":"EARTH","ELEMENT_SET_NO":"999","REF_FRAME":"TEME","MEAN_MOTION_DOT":"0.00001207","APOAPSIS":"548.276","LAUNCH_DATE":"2020-11-25","FILE":"3120378","TIME_SYSTEM":"UTC","PERIOD":"95.593","EPOCH":"2021-09-19T16:52:43.195872"},{"TIME_SYSTEM":"UTC","PERIOD":"95.592","EPOCH":"2021-09-19T19:35:54.845664","REF_FRAME":"TEME","MEAN_MOTION_DOT":"-0.00000842","APOAPSIS":"548.389","LAUNCH_DATE":"2020-11-25","FILE":"3120378","ARG_OF_PERICENTER":"88.1498","CENTER_NAME":"EARTH","ELEMENT_SET_NO":"999","MEAN_MOTION":"15.06394807","ECCENTRICITY":"0.00016750","INCLINATION":"53.0554","MEAN_ELEMENT_THEORY":"SGP4","SITE":"AFETR","SEMIMAJOR_AXIS":"6925.364","RA_OF_ASC_NODE":"67.3710","BSTAR":"-0.00003761300000","RCS_SIZE":"LARGE","TLE_LINE2":"2 47178  53.0554  67.3710 0001675  88.1498 271.9683 15.06394807 45875","PERIAPSIS":"546.069","OBJECT_ID":"2020-088BJ","OBJECT_NAME":"STARLINK-1912","GP_ID":"185056059","MEAN_MOTION_DDOT":"0.0000000000000","DECAY_DATE":null,"MEAN_ANOMALY":"271.9683","NORAD_CAT_ID":"47178","OBJECT_TYPE":"PAYLOAD","TLE_LINE1":"1 47178U 20088BJ  21262.81660701 -.00000842  00000-0 -37613-4 0  9997","COUNTRY_CODE":"US","REV_AT_EPOCH":"4587","EPHEMERIS_TYPE":"0","CLASSIFICATION_TYPE":"U"},{"MEAN_ANOMALY":"269.0640","GP_ID":"185056306","MEAN_MOTION_DDOT":"0.0000000000000","DECAY_DATE":null,"NORAD_CAT_ID":"47179","OBJECT_TYPE":"PAYLOAD","RCS_SIZE":"LARGE","TLE_LINE2":"2 47179  53.0540  77.4386 0001691  91.0542 269.0640 15.06395661 45738","OBJECT_ID":"2020-088BK","PERIAPSIS":"546.056","BSTAR":"0.00006866000000","SITE":"AFETR","SEMIMAJOR_AXIS":"6925.362","RA_OF_ASC_NODE":"77.4386","OBJECT_NAME":"STARLINK-1913","EPHEMERIS_TYPE":"0","REV_AT_EPOCH":"4573","CLASSIFICATION_TYPE":"U","TLE_LINE1":"1 47179U 20088BK  21262.80463527  .00000741  00000-0  68660-4 0  9996","COUNTRY_CODE":"US","APOAPSIS":"548.398","REF_FRAME":"TEME","MEAN_MOTION_DOT":"0.00000741","FILE":"3120378","LAUNCH_DATE":"2020-11-25","PERIOD":"95.592","EPOCH":"2021-09-19T19:18:40.487328","TIME_SYSTEM":"UTC","MEAN_MOTION":"15.06395661","INCLINATION":"53.0540","MEAN_ELEMENT_THEORY":"SGP4","ECCENTRICITY":"0.00016910","CENTER_NAME":"EARTH","ARG_OF_PERICENTER":"91.0542","ELEMENT_SET_NO":"999"},{"REV_AT_EPOCH":"4589","EPHEMERIS_TYPE":"0","CLASSIFICATION_TYPE":"U","TLE_LINE1":"1 47180U 20088BL  21262.83344482  .00414702  00000-0  48105-2 0  9995","COUNTRY_CODE":"US","GP_ID":"185057555","MEAN_MOTION_DDOT":"0.0000000000000","DECAY_DATE":null,"MEAN_ANOMALY":"285.6320","OBJECT_TYPE":"PAYLOAD","NORAD_CAT_ID":"47180","SITE":"AFETR","BSTAR":"0.00481050000000","SEMIMAJOR_AXIS":"6766.134","RA_OF_ASC_NODE":"66.3479","RCS_SIZE":"LARGE","TLE_LINE2":"2 47180  53.0517  66.3479 0001656  74.4875 285.6320 15.59882327 45893","PERIAPSIS":"386.879","OBJECT_ID":"2020-088BL","OBJECT_NAME":"STARLINK-1914","MEAN_MOTION":"15.59882327","ECCENTRICITY":"0.00016560","INCLINATION":"53.0517","MEAN_ELEMENT_THEORY":"SGP4","ARG_OF_PERICENTER":"74.4875","CENTER_NAME":"EARTH","ELEMENT_SET_NO":"999","REF_FRAME":"TEME","MEAN_MOTION_DOT":"0.00414702","APOAPSIS":"389.120","LAUNCH_DATE":"2020-11-25","FILE":"3120378","TIME_SYSTEM":"UTC","PERIOD":"92.315","EPOCH":"2021-09-19T20:00:09.632448"}];
